[{"OBJECT_NAME":"STARLINK-36914","OBJECT_ID":"2026-037L","EPOCH":"2026-03-05T06:00:02.999808","MEAN_MOTION":15.93953026,"ECCENTRICITY":0.00013488,"INCLINATION":43,"RA_OF_ASC_NODE":225.9094,"ARG_OF_PERICENTER":276.0075,"MEAN_ANOMALY":189.6485,"EPHEMERIS_TYPE":0,"CLASSIFICATION_TYPE":"U","NORAD_CAT_ID":67942,"ELEMENT_SET_NO":999,"REV_AT_EPOCH":248,"BSTAR":-0.0040363987,"MEAN_MOTION_DOT":-0.01533415,"MEAN_MOTION_DDOT":0.0006735256},{"OBJECT_NAME":"STARLINK-36851","OBJECT_ID":"2026-037M","EPOCH":"2026-03-05T06:00:02.999808","MEAN_MOTION":15.94087616,"ECCENTRICITY":0.00015736,"INCLINATION":43,"RA_OF_ASC_NODE":225.9036,"ARG_OF_PERICENTER":276.9263,"MEAN_ANOMALY":191.0391,"EPHEMERIS_TYPE":0,"CLASSIFICATION_TYPE":"U","NORAD_CAT_ID":67943,"ELEMENT_SET_NO":999,"REV_AT_EPOCH":248,"BSTAR":-0.0040164452,"MEAN_MOTION_DOT":-0.01536826,"MEAN_MOTION_DDOT":0.00067718666},{"OBJECT_NAME":"STARLINK-36892","OBJECT_ID":"2026-037N","EPOCH":"2026-03-05T06:00:02.999808","MEAN_MOTION":15.94340218,"ECCENTRICITY":0.0001423,"INCLINATION":43,"RA_OF_ASC_NODE":225.892,"ARG_OF_PERICENTER":277.8829,"MEAN_ANOMALY":194.7214,"EPHEMERIS_TYPE":0,"CLASSIFICATION_TYPE":"U","NORAD_CAT_ID":67944,"ELEMENT_SET_NO":999,"REV_AT_EPOCH":248,"BSTAR":-0.0039246092,"MEAN_MOTION_DOT":-0.0152223,"MEAN_MOTION_DDOT":0.00066708909},{"OBJECT_NAME":"STARLINK-36908","OBJECT_ID":"2026-037P","EPOCH":"2026-03-05T06:00:02.999808","MEAN_MOTION":15.94599247,"ECCENTRICITY":0.00016628,"INCLINATION":43.0001,"RA_OF_ASC_NODE":225.8776,"ARG_OF_PERICENTER":275.7914,"MEAN_ANOMALY":202.3047,"EPHEMERIS_TYPE":0,"CLASSIFICATION_TYPE":"U","NORAD_CAT_ID":67945,"ELEMENT_SET_NO":999,"REV_AT_EPOCH":248,"BSTAR":-0.003908099,"MEAN_MOTION_DOT":-0.01536882,"MEAN_MOTION_DDOT":0.00068070061},{"OBJECT_NAME":"STARLINK-36909","OBJECT_ID":"2026-037Q","EPOCH":"2026-03-05T06:00:02.999808","MEAN_MOTION":15.94726696,"ECCENTRICITY":0.00015882,"INCLINATION":43,"RA_OF_ASC_NODE":225.8731,"ARG_OF_PERICENTER":277.7546,"MEAN_ANOMALY":202.2251,"EPHEMERIS_TYPE":0,"CLASSIFICATION_TYPE":"U","NORAD_CAT_ID":67946,"ELEMENT_SET_NO":999,"REV_AT_EPOCH":248,"BSTAR":-0.0038666384,"MEAN_MOTION_DOT":-0.01531073,"MEAN_MOTION_DDOT":0.00067684193},{"OBJECT_NAME":"STARLINK-36920","OBJECT_ID":"2026-037R","EPOCH":"2026-03-05T06:00:02.999808","MEAN_MOTION":15.94849463,"ECCENTRICITY":0.00013492,"INCLINATION":43.0002,"RA_OF_ASC_NODE":225.8659,"ARG_OF_PERICENTER":274.9693,"MEAN_ANOMALY":207.7933,"EPHEMERIS_TYPE":0,"CLASSIFICATION_TYPE":"U","NORAD_CAT_ID":67947,"ELEMENT_SET_NO":999,"REV_AT_EPOCH":248,"BSTAR":-0.0038307117,"MEAN_MOTION_DOT":-0.01526891,"MEAN_MOTION_DDOT":0.00067427938},{"OBJECT_NAME":"STARLINK-36873","OBJECT_ID":"2026-037S","EPOCH":"2026-03-05T06:00:02.999808","MEAN_MOTION":15.94970044,"ECCENTRICITY":0.00013967,"INCLINATION":43.0002,"RA_OF_ASC_NODE":225.8602,"ARG_OF_PERICENTER":278.9703,"MEAN_ANOMALY":206.0277,"EPHEMERIS_TYPE":0,"CLASSIFICATION_TYPE":"U","NORAD_CAT_ID":67948,"ELEMENT_SET_NO":999,"REV_AT_EPOCH":248,"BSTAR":-0.0037794511,"MEAN_MOTION_DOT":-0.01516415,"MEAN_MOTION_DDOT":0.00066660701},{"OBJECT_NAME":"STARLINK-36863","OBJECT_ID":"2026-037T","EPOCH":"2026-03-05T06:00:02.999808","MEAN_MOTION":15.95096145,"ECCENTRICITY":0.00014009,"INCLINATION":43.0003,"RA_OF_ASC_NODE":225.8531,"ARG_OF_PERICENTER":277.7681,"MEAN_ANOMALY":210.0425,"EPHEMERIS_TYPE":0,"CLASSIFICATION_TYPE":"U","NORAD_CAT_ID":67949,"ELEMENT_SET_NO":999,"REV_AT_EPOCH":248,"BSTAR":-0.0037526714,"MEAN_MOTION_DOT":-0.01515952,"MEAN_MOTION_DDOT":0.00066708052},{"OBJECT_NAME":"STARLINK-36887","OBJECT_ID":"2026-037U","EPOCH":"2026-03-05T06:00:02.999808","MEAN_MOTION":15.95221626,"ECCENTRICITY":0.00014322,"INCLINATION":43.0002,"RA_OF_ASC_NODE":225.8456,"ARG_OF_PERICENTER":276.3274,"MEAN_ANOMALY":214.4031,"EPHEMERIS_TYPE":0,"CLASSIFICATION_TYPE":"U","NORAD_CAT_ID":67950,"ELEMENT_SET_NO":999,"REV_AT_EPOCH":248,"BSTAR":-0.0037383208,"MEAN_MOTION_DOT":-0.01520378,"MEAN_MOTION_DDOT":0.00067151427},{"OBJECT_NAME":"STARLINK-36897","OBJECT_ID":"2026-037V","EPOCH":"2026-03-05T06:00:02.999808","MEAN_MOTION":15.95349351,"ECCENTRICITY":0.00013289,"INCLINATION":43.0003,"RA_OF_ASC_NODE":225.8396,"ARG_OF_PERICENTER":273.178,"MEAN_ANOMALY":220.0424,"EPHEMERIS_TYPE":0,"CLASSIFICATION_TYPE":"U","NORAD_CAT_ID":67951,"ELEMENT_SET_NO":999,"REV_AT_EPOCH":248,"BSTAR":-0.0037152075,"MEAN_MOTION_DOT":-0.01521419,"MEAN_MOTION_DDOT":0.00067322926},{"OBJECT_NAME":"STARLINK-36381","OBJECT_ID":"2026-037W","EPOCH":"2026-03-05T06:00:02.999808","MEAN_MOTION":15.95598456,"ECCENTRICITY":0.00016544,"INCLINATION":43.0004,"RA_OF_ASC_NODE":225.8281,"ARG_OF_PERICENTER":273.7375,"MEAN_ANOMALY":223.9827,"EPHEMERIS_TYPE":0,"CLASSIFICATION_TYPE":"U","NORAD_CAT_ID":67952,"ELEMENT_SET_NO":999,"REV_AT_EPOCH":248,"BSTAR":-0.0036642559,"MEAN_MOTION_DOT":-0.01521042,"MEAN_MOTION_DDOT":0.00067462354},{"OBJECT_NAME":"STARLINK-36824","OBJECT_ID":"2026-037X","EPOCH":"2026-03-05T06:00:02.999808","MEAN_MOTION":15.95474321,"ECCENTRICITY":0.0001582,"INCLINATION":43.0005,"RA_OF_ASC_NODE":225.8338,"ARG_OF_PERICENTER":277.4566,"MEAN_ANOMALY":218.0238,"EPHEMERIS_TYPE":0,"CLASSIFICATION_TYPE":"U","NORAD_CAT_ID":67953,"ELEMENT_SET_NO":999,"REV_AT_EPOCH":248,"BSTAR":-0.0036997689,"MEAN_MOTION_DOT":-0.01525399,"MEAN_MOTION_DDOT":0.00067732638},{"OBJECT_NAME":"STARLINK-36869","OBJECT_ID":"2026-037Y","EPOCH":"2026-03-05T06:00:02.999808","MEAN_MOTION":15.95718517,"ECCENTRICITY":0.00015903,"INCLINATION":43.0003,"RA_OF_ASC_NODE":225.823,"ARG_OF_PERICENTER":275.2936,"MEAN_ANOMALY":224.3268,"EPHEMERIS_TYPE":0,"CLASSIFICATION_TYPE":"U","NORAD_CAT_ID":67954,"ELEMENT_SET_NO":999,"REV_AT_EPOCH":248,"BSTAR":-0.0036226598,"MEAN_MOTION_DOT":-0.01513695,"MEAN_MOTION_DDOT":0.00066946126},{"OBJECT_NAME":"STARLINK-36872","OBJECT_ID":"2026-037Z","EPOCH":"2026-03-05T06:00:02.999808","MEAN_MOTION":15.95967788,"ECCENTRICITY":0.00014703,"INCLINATION":43.0003,"RA_OF_ASC_NODE":225.8099,"ARG_OF_PERICENTER":274.1854,"MEAN_ANOMALY":230.5022,"EPHEMERIS_TYPE":0,"CLASSIFICATION_TYPE":"U","NORAD_CAT_ID":67955,"ELEMENT_SET_NO":999,"REV_AT_EPOCH":248,"BSTAR":-0.0035856229,"MEAN_MOTION_DOT":-0.01518608,"MEAN_MOTION_DDOT":0.00067517441},{"OBJECT_NAME":"STARLINK-36918","OBJECT_ID":"2026-037AA","EPOCH":"2026-03-05T06:00:02.999808","MEAN_MOTION":15.96093073,"ECCENTRICITY":0.00015958,"INCLINATION":43.0004,"RA_OF_ASC_NODE":225.8033,"ARG_OF_PERICENTER":273.3563,"MEAN_ANOMALY":234.0057,"EPHEMERIS_TYPE":0,"CLASSIFICATION_TYPE":"U","NORAD_CAT_ID":67956,"ELEMENT_SET_NO":999,"REV_AT_EPOCH":248,"BSTAR":-0.0035692694,"MEAN_MOTION_DOT":-0.01522044,"MEAN_MOTION_DDOT":0.0006788545},{"OBJECT_NAME":"STARLINK-36829","OBJECT_ID":"2026-037AB","EPOCH":"2026-03-05T06:00:02.999808","MEAN_MOTION":15.95843258,"ECCENTRICITY":0.00016675,"INCLINATION":43.0002,"RA_OF_ASC_NODE":225.8173,"ARG_OF_PERICENTER":276.7633,"MEAN_ANOMALY":225.2053,"EPHEMERIS_TYPE":0,"CLASSIFICATION_TYPE":"U","NORAD_CAT_ID":67957,"ELEMENT_SET_NO":999,"REV_AT_EPOCH":248,"BSTAR":-0.003611201,"MEAN_MOTION_DOT":-0.01519138,"MEAN_MOTION_DDOT":0.00067474906}]
