STARLINK-36914          
1 67942U 26037L   26064.25003472 -.01533415  67353-3 -40364-2 0  9997
2 67942  43.0000 225.9094 0001348 276.0075 189.6485 15.93953026  2489
STARLINK-36851          
1 67943U 26037M   26064.25003472 -.01536826  67719-3 -40164-2 0  9991
2 67943  43.0000 225.9036 0001573 276.9263 191.0391 15.94087616  2481
STARLINK-36892          
1 67944U 26037N   26064.25003472 -.01522230  66709-3 -39246-2 0  9993
2 67944  43.0000 225.8920 0001423 277.8829 194.7214 15.94340218  2489
STARLINK-36908          
1 67945U 26037P   26064.25003472 -.01536882  68070-3 -39081-2 0  9992
2 67945  43.0001 225.8776 0001662 275.7914 202.3047 15.94599247  2485
STARLINK-36909          
1 67946U 26037Q   26064.25003472 -.01531073  67684-3 -38666-2 0  9998
2 67946  43.0000 225.8731 0001588 277.7546 202.2251 15.94726696  2482
STARLINK-36920          
1 67947U 26037R   26064.25003472 -.01526891  67428-3 -38307-2 0  9999
2 67947  43.0002 225.8659 0001349 274.9693 207.7933 15.94849463  2486
STARLINK-36873          
1 67948U 26037S   26064.25003472 -.01516415  66661-3 -37795-2 0  9999
2 67948  43.0002 225.8602 0001396 278.9703 206.0277 15.94970044  2486
STARLINK-36863          
1 67949U 26037T   26064.25003472 -.01515952  66708-3 -37527-2 0  9990
2 67949  43.0003 225.8531 0001400 277.7681 210.0425 15.95096145  2489
STARLINK-36887          
1 67950U 26037U   26064.25003472 -.01520378  67151-3 -37383-2 0  9993
2 67950  43.0002 225.8456 0001432 276.3274 214.4031 15.95221626  2489
STARLINK-36897          
1 67951U 26037V   26064.25003472 -.01521419  67323-3 -37152-2 0  9996
2 67951  43.0003 225.8396 0001328 273.1780 220.0424 15.95349351  2480
STARLINK-36381          
1 67952U 26037W   26064.25003472 -.01521042  67462-3 -36643-2 0  9997
2 67952  43.0004 225.8281 0001654 273.7375 223.9827 15.95598456  2484
STARLINK-36824          
1 67953U 26037X   26064.25003472 -.01525399  67733-3 -36998-2 0  9991
2 67953  43.0005 225.8338 0001582 277.4566 218.0238 15.95474321  2487
STARLINK-36869          
1 67954U 26037Y   26064.25003472 -.01513695  66946-3 -36227-2 0  9998
2 67954  43.0003 225.8230 0001590 275.2936 224.3268 15.95718517  2484
STARLINK-36872          
1 67955U 26037Z   26064.25003472 -.01518608  67517-3 -35856-2 0  9990
2 67955  43.0003 225.8099 0001470 274.1854 230.5022 15.95967788  2485
STARLINK-36918          
1 67956U 26037AA  26064.25003472 -.01522044  67885-3 -35693-2 0  9997
2 67956  43.0004 225.8033 0001595 273.3563 234.0057 15.96093073  2486
STARLINK-36829          
1 67957U 26037AB  26064.25003472 -.01519138  67475-3 -36112-2 0  9990
2 67957  43.0002 225.8173 0001667 276.7633 225.2053 15.95843258  2480
